C/2018 KJ3 (Lemmon),e,136.7087,91.5994,217.6588,814.5975,0.0000424,0.99554472,0.0000,09/09.6692/2019,2000,g 12.2,2.0
# From MPC114602
P/2018 L1 (PANSTARRS),e,10.5930,268.6305,17.9764,3.650529,0.1413092,0.48290331,107.8729,12/15.0/2020,2000,g 15.0,4.0
# From MPC118841
C/2018 L2 (ATLAS),e,67.3924,243.0238,56.2704,258.6056,0.0002370,0.99337733,0.0000,12/02.6772/2018,2000,g 10.0,4.0
# From MPC114603
P/2018 L4 (PANSTARRS),e,26.6244,145.1583,140.5534,4.940185,0.0897613,0.66019784,77.8332,12/15.0/2020,2000,g 17.5,4.0
# From MPC119996
P/2018 L5 (Leonard),e,2.2083,219.1308,93.7915,3.627680,0.1426463,0.36478341,136.2194,12/15.0/2020,2000,g 14.5,4.0
# From MPC117070
C/2018 M1 (Catalina),e,37.2884,339.4189,14.1603,21.34720,0.0099929,0.93898426,8.8811,12/15.0/2020,2000,g 15.5,4.0
# From MPC112393
C/2018 N1 (NEOWISE),e,159.4446,292.4445,354.6176,347.4240,0.0001522,0.99623046,0.0000,08/01.9301/2018,2000,g 15.5,4.0
# From MPC119996
C/2018 N2 (ASASSN),h,11/10.9699/2019,77.5282,25.2473,24.4026,1.000111,3.124765,2000,6.0,4.0
# From MPC114603
C/2018 O1 (ATLAS),e,154.0398,87.6417,162.5729,27.88905,0.0066920,0.94405662,5.5974,12/15.0/2020,2000,g 17.0,4.0
# From MPC114603
P/2018 P3 (PANSTARRS),e,8.9088,59.1869,305.8715,3.006356,0.1890791,0.41641521,150.7484,12/15.0/2020,2000,g 14.5,4.0
# From MPC114603
P/2018 P4 (PANSTARRS),e,23.1069,353.0780,8.2080,6.670939,0.0572036,0.45035907,43.9395,12/15.0/2020,2000,g 12.0,4.0
# From MPC118094
C/2018 P5 (PANSTARRS),e,7.2533,216.2426,131.7155,12.79427,0.0215368,0.64224499,14.1507,12/15.0/2020,2000,g 11.0,4.0
# From MPC118841
C/2018 R3 (Lemmon),e,69.7271,324.6368,112.8396,1695,0.0000141,0.99923902,0.0000,06/07.2185/2019,2000,g  9.5,4.0
# From MPC112393
C/2018 R4 (Fuls),e,11.6836,298.4362,345.2710,328.4133,0.0001656,0.99478298,0.0000,03/03.6554/2018,2000,g 14.0,4.0
# From MPC114603
C/2018 R5 (Lemmon),e,103.7482,171.1309,178.0452,22.78445,0.0090625,0.84099516,6.3890,12/15.0/2020,2000,g 11.5,4.0
# From MPC119996
C/2018 U1 (Lemmon),h,11/02.8127/2021,108.2992,75.4792,180.4300,1.001098,4.993367,2000,5.0,4.0
# From MPC114604
C/2018 V1 (Machholz-Fujikawa-Iwamoto),h,12/03.3384/2018,144.0536,128.8783,88.8377,1.000360,0.386027,2000,12.0,4.0
# From MPC115884
C/2018 V2 (ATLAS),e,159.1656,357.0655,318.9574,25.21428,0.0077846,0.90171173,5.8347,12/15.0/2020,2000,g 15.0,4.0
# From MPC114604
P/2018 VN2 (Leonard),e,18.2483,226.5182,138.7361,4.064767,0.1202682,0.47841295,111.0544,12/15.0/2020,2000,g 15.0,4.0
# From MPC117070
A/2018 V3,e,164.9780,308.6564,3.5131,121.4197,0.0007367,0.98896327,0.0000,09/08.6777/2019,2000,g 15.7,2.0
# From MPC114604
C/2018 V4 (Africano),e,69.0030,78.3687,359.9499,206.8501,0.0003313,0.98454177,0.0000,03/01.4432/2019,2000,g 12.5,4.0
# From MPC114604
P/2018 V5 (Trujillo-Sheppard),e,10.5846,171.2908,260.7061,8.954438,0.0367830,0.47457934,29.5786,12/15.0/2020,2000,g 12.5,4.0
# From MPC115884
C/2018 W1 (Catalina),e,83.2621,233.5925,251.2508,21.72443,0.0097338,0.93736968,5.6772,12/15.0/2020,2000,g 15.7,2.0
# From MPC119996
C/2018 W2 (Africano),h,09/05.6677/2019,116.6170,181.8526,157.9749,1.000465,1.454947,2000,9.5,4.0
# From MPC119996
C/2018 X2 (Fitzsimmons),e,23.0694,340.8269,162.0603,148.3990,0.0005452,0.98567031,0.0000,07/08.4575/2019,2000,g 12.0,4.0
# From MPC114604
C/2018 X3 (PANSTARRS),e,43.3704,78.9105,359.7637,12.38077,0.0226247,0.78217684,16.1862,12/15.0/2020,2000,g 14.5,4.0
# From MPC118842
C/2018 Y1 (Iwamoto),e,160.4001,147.5098,358.0285,141.6182,0.0005848,0.99092372,0.0000,02/07.0191/2019,2000,g 11.5,4.0
# From MPC114605
P/2018 Y2 (Africano),e,11.6827,297.2665,162.3718,7.463375,0.0483394,0.47864542,34.4749,12/15.0/2020,2000,g 11.5,4.0
# From MPC114605
P/2019 A1 (PANSTARRS),e,13.7442,312.3028,150.7988,5.123593,0.0849850,0.56835574,67.6711,12/15.0/2020,2000,g 16.0,4.0
# From MPC114605
P/2019 A2 (ATLAS),e,14.8605,139.4680,324.0828,5.723664,0.0719769,0.38135657,54.3682,12/15.0/2020,2000,g 10.5,4.0
# From MPC114605
P/2019 A3 (PANSTARRS),e,15.3665,31.3043,325.4880,3.147002,0.1765463,0.26548381,152.8613,12/15.0/2020,2000,g 16.0,4.0
# From MPC114605
P/2019 A4 (PANSTARRS),e,13.3209,119.2991,341.7750,2.614264,0.2331738,0.08873036,172.9039,12/15.0/2020,2000,g 15.0,4.0
# From MPC118842
C/2019 A5 (PANSTARRS),e,67.5568,146.6255,355.9828,21.59364,0.0098224,0.70717759,5.4540,12/15.0/2020,2000,g  9.5,4.0
# From MPC114605
P/2019 A6 (Lemmon-PANSTARRS),e,33.2302,280.2695,156.2195,5.363534,0.0793465,0.63894807,66.5612,12/15.0/2020,2000,g 16.0,4.0
# From MPC114605
P/2019 A7 (PANSTARRS),e,17.7745,280.5229,119.2733,3.185753,0.1733349,0.16109135,185.9606,12/15.0/2020,2000,g 13.5,4.0
# From MPC115884
P/2019 A8 (PANSTARRS),e,3.0817,127.5517,22.3462,3.357751,0.1601885,0.45317685,131.3015,12/15.0/2020,2000,g 16.0,4.0
# From MPC118842
C/2019 A9 (PANSTARRS),e,84.2045,278.3854,237.9623,39.86707,0.0039155,0.96411582,1.9869,12/15.0/2020,2000,g 15.0,4.0
# From MPC114606
C/2019 B1 (Africano),e,123.3637,290.4353,174.8482,146.7562,0.0005544,0.98912016,0.0000,03/19.7856/2019,2000,g 16.0,4.0
# From MPC115885
P/2019 B2 (Groeller),e,16.8345,176.3157,359.1839,3.862447,0.1298405,0.37326840,72.0530,12/15.0/2020,2000,g 14.5,4.0
# From MPC115885
C/2019 B3 (PANSTARRS),h,01/19.9395/2021,66.5386,358.4287,263.9005,1.002528,6.823635,2000,5.5,4.0
# From MPEC 2020-AA5
C/2019 C1,e,36.0236,212.3894,319.1916,763.1850,0.0000467,0.99137674,0.0000,05/05.6513/2020,2000,g 10.0,4.0
# From MPC118842
C/2019 D1 (Flewelling),e,34.0833,231.7176,70.5182,141.1735,0.0005876,0.98881772,0.0000,05/11.8769/2019,2000,g 13.0,4.0
# From MPC119997
C/2019 E3 (ATLAS),h,11/12.4493/2023,84.2909,347.2396,280.6081,1.004087,10.315059,2000,2.5,4.0
# From MPC119997
C/2019 F1 (ATLAS-Africano),h,06/22.7773/2021,54.1756,38.7261,251.1171,1.003632,3.595696,2000,5.5,4.0
# From MPC119997
C/2019 F2 (ATLAS),e,19.1961,175.7246,11.2361,16.71681,0.0144203,0.86621629,6.6740,12/15.0/2020,2000,g 12.0,4.0
# From MPEC 2020-AA5
A/2019 G2,e,159.2082,208.1509,82.6382,676.9089,0.0000560,0.99661556,0.0000,12/10.0065/2019,2000,g 16.5,2.0
# From MPC118094
A/2019 G4,h,09/16.0010/2018,138.3863,130.4642,287.8839,1.001434,5.858480,2000,13.0,2.0
# From MPC114607
P/2019 GG21 (PANSTARRS),e,6.0838,340.5804,208.4859,7.472463,0.0482512,0.47300310,28.1895,12/15.0/2020,2000,g 12.0,4.0
# From MPC115885
C/2019 H1 (NEOWISE),e,104.5726,269.1938,19.3176,234.0515,0.0002753,0.99211386,0.0000,04/27.7910/2019,2000,g 15.5,4.0
# From MPC118842
C/2019 J1 (Lemmon),e,24.5505,98.0902,167.7845,69.75706,0.0016917,0.96445709,1.0418,12/15.0/2020,2000,g 12.0,4.0
# From MPC115885
C/2019 J2 (Palomar),e,105.1487,25.4777,98.7139,674.5966,0.0000563,0.99743960,0.0000,07/19.7049/2019,2000,g 13.0,4.0
# From MPC117071
C/2019 J3 (ATLAS),h,08/01.9417/2019,131.4123,270.5239,16.5782,1.000200,2.374167,2000,13.5,4.0
# From MPC117071
C/2019 JU6 (ATLAS),e,148.3021,21.7415,94.8989,335.9834,0.0001600,0.99391112,0.0000,05/31.8872/2019,2000,g 14.5,4.0
# From MPC119997
C/2019 K1 (ATLAS),h,02/12.9824/2020,87.1439,73.3773,265.7124,1.000011,2.012674,2000,10.0,4.0
# From MPC119997
C/2019 K4 (Ye),e,105.3025,180.1635,139.7740,1581,0.0000157,0.99857030,0.0000,06/16.3251/2019,2000,g 12.5,4.0
# From MPC119997
C/2019 K5 (Young),e,15.3149,177.1649,174.9636,157.2034,0.0005000,0.98705235,0.0000,06/22.8510/2019,2000,g 13.0,4.0
# From MPC117071
A/2019 K6,e,132.3771,42.9425,187.6276,1651,0.0000147,0.99761996,0.0000,05/20.2341/2020,2000,g 13.6,2.0
# From MPC118095
C/2019 K7 (Smith),e,103.5400,307.9298,27.3077,143335,0.0000000,0.99996878,0.0000,06/16.9746/2020,2000,g  6.2,4.0
# From MPC119997
C/2019 K8 (ATLAS),e,93.2215,291.0449,85.3718,2215,0.0000095,0.99855728,0.0000,07/21.3681/2019,2000,g 11.5,4.0
# From MPC118095
C/2019 L1 (PANSTARRS),e,9.9928,254.4115,49.9518,9.835194,0.0319543,0.70604281,15.7101,12/15.0/2020,2000,g 13.5,4.0
# From MPC115886
C/2019 L2 (NEOWISE),e,152.1815,12.5825,18.7444,24.85316,0.0079548,0.93480982,4.9574,12/15.0/2020,2000,g 16.0,4.0
# From MPC119997
C/2019 L3 (ATLAS),h,01/09.7056/2022,48.3661,290.7854,171.6363,1.000938,3.553953,2000,4.5,4.0
# From MPC118095
C/2019 LB7 (Kleyna),e,164.2904,3.8770,336.4879,34.90897,0.0047786,0.92884278,3.0055,12/15.0/2020,2000,g 17.0,4.0
# From MPC118843
P/2019 M2 (ATLAS),e,12.2821,307.5964,332.5635,3.026568,0.1871882,0.64836027,101.3342,12/15.0/2020,2000,g 21.2,4.0
# From MPC118095
C/2019 M3 (ATLAS),h,01/02.7553/2019,99.4621,154.8999,87.9329,1.001368,2.418877,2000,12.2,4.0
# From MPC119997
C/2019 N1 (ATLAS),e,82.4274,13.5728,193.4468,35419,0.0000001,0.99995188,0.0000,12/01.7901/2020,2000,g  7.5,4.0
# From MPEC 2020-AA5
A/2019 O2,e,93.2862,48.3189,129.6806,57.37354,0.0022680,0.83126349,358.0858,12/15.0/2020,2000,g  9.5,2.0
# From MPC118843
A/2019 O3,h,03/08.0218/2021,89.8126,300.3792,60.0554,1.002113,8.818470,2000,10.0,2.0
# From MPC117072
A/2019 O4,e,115.0859,354.9185,61.8281,32.85303,0.0052341,0.88905740,1.6172,12/15.0/2020,2000,g 15.5,2.0
# From MPEC 2020-AA5
A/2019 Q1,h,07/20.0597/2020,155.7218,42.3490,55.9756,1.000798,4.996870,2000,12.5,2.0
# From MPC117072
A/2019 Q2,e,159.0199,188.0420,176.2963,57.32656,0.0022708,0.97807734,0.0000,07/22.3062/2019,2000,g 18.0,2.0
# From MPC117072
C/2019 Q3 (PANSTARRS),h,08/21.3235/2018,65.5275,151.3240,152.6803,1.004173,7.253221,2000,8.5,4.0
# From MPC117072
P/2019 S2 (PANSTARRS),e,10.4730,93.1295,216.8505,4.736045,0.0956269,0.20678817,63.3521,12/15.0/2020,2000,g 13.5,4.0
# From MPC118096
P/2019 S3 (PANSTARRS),e,8.6935,150.1608,212.9800,3.414702,0.1561977,0.47090905,74.4759,12/15.0/2020,2000,g 18.3,4.0
# From MPEC 2020-AA5
A/2019 S4,e,92.0240,63.1640,71.3639,234.3516,0.0002747,0.98531355,0.0000,04/07.9715/2020,2000,g 14.5,2.0
# From MPC118843
A/2019 T1,e,120.8697,6.9537,91.0270,38.25809,0.0041650,0.88808661,359.8741,12/15.0/2020,2000,g 13.0,2.0
# From MPEC 2020-AA5
A/2019 T2,e,111.4825,155.6403,239.3849,2560,0.0000076,0.99896648,0.0000,04/22.2561/2021,2000,g 12.5,2.0
# From MPC119998
C/2019 T3 (ATLAS),e,121.8625,139.5202,112.2731,4433,0.0000033,0.99865861,0.0000,03/02.6393/2021,2000,g  6.8,4.0
# From MPC119998
